SL-3 R/B                
1 13403U 82079B   26091.82939257  .00005995  00000+0  23629-3 0  9992
2 13403  81.1480 165.7540 0025504  88.8481 271.5674 15.25106671381228
SL-14 R/B               
1 13553U 82092B   26091.81768631  .00000503  00000+0  53659-4 0  9995
2 13553  82.5652 119.7624 0019274 221.0558 312.1011 14.86687285332364
SL-3 R/B                
1 13819U 83010B   26091.40331898  .00014646  00000+0  28683-3 0  9998
2 13819  81.1046 334.3871 0015664 332.7155  27.3265 15.47123509361452
SL-3 R/B                
1 14208U 83075B   26091.83868885  .00013166  00000+0  34037-3 0  9996
2 14208  97.6132  97.3021 0022643 142.9110 217.3705 15.38974567333719
COSMOS 1536             
1 14699U 84013A   26091.70085088  .00007492  00000+0  30592-3 0  9992
2 14699  82.5414  84.9639 0013804 193.7603 166.3260 15.24147538276121
SL-14 R/B               
1 14820U 84027B   26091.65502947  .00000665  00000+0  73248-4 0  9996
2 14820  82.5423 223.4729 0016525 256.2708 103.6669 14.86001483251047
SL-8 R/B                
1 15483U 85006B   26091.83813242  .00000342  00000+0  12193-3 0  9996
2 15483  74.0458 218.5511 0017532 129.5267 344.9206 14.37799995157356
SL-12 R/B(2)            
1 15772U 85042D   26091.57822868  .00000132  00000+0  80960-4 0  9997
2 15772  71.1095  39.3692 0032847  90.1454  82.2174 14.21988978117646
SL-14 R/B               
1 15945U 85069B   26091.49818336  .00000587  00000+0  63475-4 0  9990
2 15945  82.5306   3.4919 0020202 114.7863 245.5458 14.86457907176224
SL-16 R/B               
1 16182U 85097B   26091.46120071 -.00000187  00000+0 -69608-4 0  9996
2 16182  71.0007  92.6109 0009347 232.9843 288.9924 14.16603060 90453
SL-14 R/B               
1 16496U 86006B   26091.87318070  .00001159  00000+0  12045-3 0  9998
2 16496  82.5258 237.9133 0076115 194.7849 165.1144 14.86854473152659
COSMOS 1743             
1 16719U 86034A   26091.80610118  .00056605  00000+0  68169-3 0  9992
2 16719  82.5313  49.5333 0005141 161.1896 198.9551 15.60572127183857
